NORAD_CAT_ID,OBJECT_NAME,OBJECT_TYPE,EPOCH,MEAN_MOTION,ECCENTRICITY,INCLINATION,RA_OF_ASC_NODE,ARG_OF_PERICENTER,MEAN_ANOMALY,BSTAR,MEAN_MOTION_DOT,MEAN_MOTION_DDOT,TLE_LINE0,TLE_LINE1,TLE_LINE2,SEMIMAJOR_AXIS,PERIOD,APOGEE,PERIGEE,DECAYED
54063.0,STARLINK-5225,PAYLOAD,2023-03-08 03:35:03,15.08836942,0.0001505,53.2157,231.0977,85.1971,274.9193,4.7566e-06,-2.12e-06,0.0,0 STARLINK-5225,1 54063U 22136N   23067.14934990 -.00000212  00000-0  47566-5 0  9998,2 54063  53.2157 231.0977 0001505  85.1971 274.9193 15.08836942 21637,6917.89,95.438,540.796,538.714,0.0
54063.0,STARLINK-5225,PAYLOAD,2023-03-08 21:04:18,15.088454,0.0001049,53.2129,227.8285,106.8937,253.217,0.00030029,4.495e-05,0.0,0 STARLINK-5225,1 54063U 22136N   23067.87798971  .00004495  00000-0  30029-3 0  9995,2 54063  53.2129 227.8285 0001049 106.8937 253.2170 15.08845400 21260,6917.864,95.437,540.455,539.003,0.0
54063.0,STARLINK-5225,PAYLOAD,2023-03-09 17:44:19,15.08836952,0.0001102,53.2167,223.9649,90.779,269.3329,0.00023108,3.391e-05,0.0,0 STARLINK-5225,1 54063U 22136N   23068.73911818  .00003391  00000-0  23108-3 0  9992,2 54063  53.2167 223.9649 0001102  90.7790 269.3329 15.08836952 21874,6917.89,95.438,540.517,538.992,0.0
54063.0,STARLINK-5225,PAYLOAD,2023-03-10 09:38:11,15.08846837,0.0001098,53.2153,220.991,89.0045,271.1072,0.00048553,7.449e-05,0.0,0 STARLINK-5225,1 54063U 22136N   23069.40151791  .00007449  00000-0  48553-3 0  9992,2 54063  53.2153 220.9910 0001098  89.0045 271.1072 15.08846837 21492,6917.859,95.437,540.484,538.965,0.0
54063.0,STARLINK-5225,PAYLOAD,2023-03-11 03:07:25,15.08858606,8.91e-05,53.2157,217.7198,93.6699,266.4395,0.00051731,7.959e-05,0.0,0 STARLINK-5225,1 54063U 22136N   23070.13015065  .00007959  00000-0  51731-3 0  9995,2 54063  53.2157 217.7198 0000891  93.6699 266.4395 15.08858606 22082,6917.824,95.436,540.305,539.072,0.0
54063.0,STARLINK-5225,PAYLOAD,2023-03-11 09:28:57,15.08851856,0.000224,53.2138,216.5305,87.4189,272.706,0.00033429,5.038e-05,0.0,0 STARLINK-5225,1 54063U 22136N   23070.39511465  .00005038  00000-0  33429-3 0  9998,2 54063  53.2138 216.5305 0002240  87.4189 272.7060 15.08851856 22127,6917.844,95.437,541.259,538.16,0.0
54063.0,STARLINK-5225,PAYLOAD,2023-03-11 19:01:16,15.08853455,0.0001325,53.2153,214.745,83.9313,276.183,0.00030206,4.524e-05,0.0,0 STARLINK-5225,1 54063U 22136N   23070.79255203  .00004524  00000-0  30206-3 0  9996,2 54063  53.2153 214.7450 0001325  83.9313 276.1830 15.08853455 21701,6917.839,95.437,540.621,538.788,0.0
54063.0,STARLINK-5225,PAYLOAD,2023-03-12 09:19:45,15.08834105,0.0002025,53.2153,212.071,82.7287,277.3935,-1.4123e-05,-5.13e-06,0.0,0 STARLINK-5225,1 54063U 22136N   23071.38872038 -.00000513  00000-0 -14123-4 0  9990,2 54063  53.2153 212.0710 0002025  82.7287 277.3935 15.08834105 22279,6917.898,95.438,541.164,538.363,0.0
54063.0,STARLINK-5225,PAYLOAD,2023-03-12 18:52:04,15.08838923,0.0002178,53.2147,210.2867,81.7669,278.357,0.00015715,2.214e-05,0.0,0 STARLINK-5225,1 54063U 22136N   23071.78616184  .00002214  00000-0  15715-3 0  9997,2 54063  53.2147 210.2867 0002178  81.7669 278.3570 15.08838923 21858,6917.884,95.438,541.255,538.242,0.0
54063.0,STARLINK-5225,PAYLOAD,2023-03-13 12:21:19,15.08841212,0.0001681,53.2166,207.0148,101.1459,258.9723,0.00024717,3.648e-05,0.0,0 STARLINK-5225,1 54063U 22136N   23072.51480330  .00003648  00000-0  24717-3 0  9995,2 54063  53.2166 207.0148 0001681 101.1459 258.9723 15.08841212 21968,6917.877,95.437,540.905,538.579,0.0
54063.0,STARLINK-5225,PAYLOAD,2023-03-13 13:56:41,15.08843855,0.0001479,53.2172,206.7179,95.3096,264.8065,0.00033349,5.024e-05,0.0,0 STARLINK-5225,1 54063U 22136N   23072.58104125  .00005024  00000-0  33349-3 0  9998,2 54063  53.2172 206.7179 0001479  95.3096 264.8065 15.08843855 22456,6917.869,95.437,540.757,538.71,0.0
54063.0,STARLINK-5225,PAYLOAD,2023-03-14 12:12:04,15.08861762,0.0001835,53.2176,202.5531,118.8958,241.2219,0.00025353,3.752e-05,0.0,0 STARLINK-5225,1 54063U 22136N   23073.50839056  .00003752  00000-0  25353-3 0  9991,2 54063  53.2176 202.5531 0001835 118.8958 241.2219 15.08861762 22110,6917.814,95.436,540.948,538.409,0.0
54063.0,STARLINK-5225,PAYLOAD,2023-03-14 18:33:37,15.08877052,0.0001521,53.2165,201.365,97.7767,262.3398,0.00093716,0.00014673,0.0,0 STARLINK-5225,1 54063U 22136N   23073.77334685  .00014673  00000-0  93716-3 0  9990,2 54063  53.2165 201.3650 0001521  97.7767 262.3398 15.08877052 22630,6917.767,95.435,540.684,538.58,0.0
54063.0,STARLINK-5225,PAYLOAD,2023-03-15 12:02:51,15.08852853,0.0001772,53.2172,198.0928,97.8533,262.266,0.00019208,2.771e-05,0.0,0 STARLINK-5225,1 54063U 22136N   23074.50198667  .00002771  00000-0  19208-3 0  9990,2 54063  53.2172 198.0928 0001772  97.8533 262.2660 15.08852853 22743,6917.841,95.437,540.932,538.48,0.0
54063.0,STARLINK-5225,PAYLOAD,2023-03-16 00:45:56,15.08847838,0.0001356,53.2154,195.7145,83.3488,276.7659,0.00017914,2.565e-05,0.0,0 STARLINK-5225,1 54063U 22136N   23075.03190646  .00002565  00000-0  17914-3 0  9991,2 54063  53.2154 195.7145 0001356  83.3488 276.7659 15.08847838 22829,6917.856,95.437,540.659,538.783,0.0
54063.0,STARLINK-5225,PAYLOAD,2023-03-16 08:42:53,15.08807358,0.0001122,53.2148,194.2276,92.5426,267.5695,-0.00032832,-5.504e-05,0.0,0 STARLINK-5225,1 54063U 22136N   23075.36311728 -.00005504  00000-0 -32832-3 0  9997,2 54063  53.2148 194.2276 0001122  92.5426 267.5695 15.08807358 22872,6917.98,95.44,540.621,539.069,0.0
54063.0,STARLINK-5225,PAYLOAD,2023-03-16 18:15:12,15.08819638,0.0001793,53.2148,192.4431,109.7922,250.3263,0.00031369,4.705e-05,0.0,0 STARLINK-5225,1 54063U 22136N   23075.76056412  .00004705  00000-0  31369-3 0  9991,2 54063  53.2148 192.4431 0001793 109.7922 250.3263 15.08819638 22933,6917.943,95.439,541.048,538.567,0.0
54063.0,STARLINK-5225,PAYLOAD,2023-03-17 08:33:42,15.08816538,0.0002409,53.2158,189.7668,117.5014,242.6223,0.00046807,7.164e-05,0.0,0 STARLINK-5225,1 54063U 22136N   23076.35673642  .00007164  00000-0  46807-3 0  9992,2 54063  53.2158 189.7668 0002409 117.5014 242.6223 15.08816538 22542,6917.952,95.439,541.484,538.151,0.0
54063.0,STARLINK-5225,PAYLOAD,2023-03-18 00:27:33,15.08844174,8.18e-05,53.2164,186.7945,111.4623,248.6456,0.00070791,0.00010998,0.0,0 STARLINK-5225,1 54063U 22136N   23077.01913647  .00010998  00000-0  70791-3 0  9996,2 54063  53.2164 186.7945 0000818 111.4623 248.6456 15.08844174 23121,6917.868,95.437,540.299,539.167,0.0
54063.0,STARLINK-5225,PAYLOAD,2023-03-18 13:10:37,15.08873741,0.0001202,53.2154,184.4152,98.6732,261.4397,0.0012625,0.0001988,0.0,0 STARLINK-5225,1 54063U 22136N   23077.54904858  .00019880  00000-0  12625-2 0  9998,2 54063  53.2154 184.4152 0001202  98.6732 261.4397 15.08873741 23208,6917.777,95.435,540.474,538.811,0.0
54063.0,STARLINK-5225,PAYLOAD,2023-03-18 14:46:00,15.08883412,0.0001217,53.2166,184.1187,96.5033,263.6098,0.001572,0.00024849,0.0,0 STARLINK-5225,1 54063U 22136N   23077.61528639  .00024849  00000-0  15720-2 0  9995,2 54063  53.2166 184.1187 0001217  96.5033 263.6098 15.08883412 22738,6917.748,95.435,540.455,538.771,0.0
54063.0,STARLINK-5225,PAYLOAD,2023-03-19 06:39:51,15.08855364,0.0001466,53.2166,181.1454,105.0196,255.0958,0.00057315,8.849e-05,0.0,0 STARLINK-5225,1 54063U 22136N   23078.27768190  .00008849  00000-0  57315-3 0  9995,2 54063  53.2166 181.1454 0001466 105.0196 255.0958 15.08855364 23314,6917.833,95.437,540.713,538.684,0.0
54063.0,STARLINK-5225,PAYLOAD,2023-03-19 13:01:24,15.08857525,0.0001475,53.2166,179.9562,103.7925,256.3231,0.0014558,0.00022968,0.0,0 STARLINK-5225,1 54063U 22136N   23078.54264045  .00022968  00000-0  14558-2 0  9994,2 54063  53.2166 179.9562 0001475 103.7925 256.3231 15.08857525 22873,6917.827,95.436,540.712,538.671,0.0
54063.0,STARLINK-5225,PAYLOAD,2023-03-19 16:12:10,15.08862428,0.0001446,53.2164,179.3611,106.1219,253.9933,0.0018636,0.00029514,0.0,0 STARLINK-5225,1 54063U 22136N   23078.67511857  .00029514  00000-0  18636-2 0  9999,2 54063  53.2164 179.3611 0001446 106.1219 253.9933 15.08862428 22893,6917.812,95.436,540.677,538.677,0.0
54063.0,STARLINK-5225,PAYLOAD,2023-03-20 06:30:38,15.08849637,0.0001979,53.2165,176.6852,95.4259,264.6959,0.0014111,0.00022247,0.0,0 STARLINK-5225,1 54063U 22136N   23079.27128406  .00022247  00000-0  14111-2 0  9990,2 54063  53.2165 176.6852 0001979  95.4259 264.6959 15.08849637 23464,6917.851,95.437,541.085,538.347,0.0
54063.0,STARLINK-5225,PAYLOAD,2023-03-20 12:52:11,15.08842403,0.0001604,53.2176,175.4953,98.7371,261.3803,0.00096933,0.00015174,0.0,0 STARLINK-5225,1 54063U 22136N   23079.53624382  .00015174  00000-0  96933-3 0  9997,2 54063  53.2176 175.4953 0001604  98.7371 261.3803 15.08842403 23502,6917.873,95.437,540.848,538.628,0.0
54063.0,STARLINK-5225,PAYLOAD,2023-03-21 06:21:25,15.08847411,0.0001439,53.2156,172.2243,91.1842,268.9315,0.00062855,9.732e-05,0.0,0 STARLINK-5225,1 54063U 22136N   23080.26488374  .00009732  00000-0  62855-3 0  9997,2 54063  53.2156 172.2243 0001439  91.1842 268.9315 15.08847411 23610,6917.858,95.437,540.718,538.727,0.0
54063.0,STARLINK-5225,PAYLOAD,2023-03-21 12:42:58,15.08849874,0.0001427,53.2166,171.0348,99.5405,260.5748,0.00034641,5.231e-05,0.0,0 STARLINK-5225,1 54063U 22136N   23080.52984072  .00005231  00000-0  34641-3 0  9994,2 54063  53.2166 171.0348 0001427  99.5405 260.5748 15.08849874 23172,6917.85,95.437,540.702,538.728,0.0
54063.0,STARLINK-5225,PAYLOAD,2023-03-22 04:36:49,15.08845427,0.0001714,53.2179,168.0644,101.9361,258.1824,0.00016615,2.358e-05,0.0,0 STARLINK-5225,1 54063U 22136N   23081.19224129  .00002358  00000-0  16615-3 0  9996,2 54063  53.2179 168.0644 0001714 101.9361 258.1824 15.08845427 23751,6917.864,95.437,540.915,538.543,0.0
54063.0,STARLINK-5225,PAYLOAD,2023-03-22 12:33:45,15.08845566,0.000151,53.2173,166.5741,121.8531,238.2608,0.00019934,2.886e-05,0.0,0 STARLINK-5225,1 54063U 22136N   23081.52344079  .00002886  00000-0  19934-3 0  9993,2 54063  53.2173 166.5741 0001510 121.8531 238.2608 15.08845566 23326,6917.863,95.437,540.773,538.684,0.0
